NORAD_CAT_ID,OBJECT_NAME,OBJECT_TYPE,EPOCH,MEAN_MOTION,ECCENTRICITY,INCLINATION,RA_OF_ASC_NODE,ARG_OF_PERICENTER,MEAN_ANOMALY,BSTAR,MEAN_MOTION_DOT,MEAN_MOTION_DDOT,TLE_LINE0,TLE_LINE1,TLE_LINE2,SEMIMAJOR_AXIS,PERIOD,APOGEE,PERIGEE,DECAYED
54165.0,STARLINK-5279,PAYLOAD,2024-05-25 11:17:12,15.08837552,0.0001243,53.2174,66.5145,101.9544,258.1588,8.515e-05,1.067e-05,0.0,0 STARLINK-5279,1 54165U 22141J   24146.47028324  .00001067  00000-0  85150-4 0  9995,2 54165  53.2174  66.5145 0001243 101.9544 258.1588 15.08837552 87103,6917.888,95.438,540.613,538.893,0.0
54165.0,STARLINK-5279,PAYLOAD,2024-05-25 19:14:08,15.08831776,0.000123,53.2173,65.0274,91.5114,268.602,-4.2031e-05,-9.57e-06,0.0,0 STARLINK-5279,1 54165U 22141J   24146.80148718 -.00000957  00000-0 -42031-4 0  9992,2 54165  53.2173  65.0274 0001230  91.5114 268.6020 15.08831776 87156,6917.906,95.438,540.621,538.92,0.0
54165.0,STARLINK-5279,PAYLOAD,2024-05-26 01:35:40,15.08839449,0.0001203,53.2175,63.8392,105.8539,254.2586,0.00018362,2.636e-05,0.0,0 STARLINK-5279,1 54165U 22141J   24147.06644646  .00002636  00000-0  18362-3 0  9995,2 54165  53.2175  63.8392 0001203 105.8539 254.2586 15.08839449 87192,6917.882,95.438,540.579,538.915,0.0
54165.0,STARLINK-5279,PAYLOAD,2024-05-26 22:15:41,15.08845242,0.0001183,53.2172,59.9716,100.7437,259.3688,0.00030266,4.533e-05,0.0,0 STARLINK-5279,1 54165U 22141J   24147.92756513  .00004533  00000-0  30266-3 0  9992,2 54165  53.2172  59.9716 0001183 100.7437 259.3688 15.08845242 87325,6917.864,95.437,540.548,538.911,0.0
54165.0,STARLINK-5279,PAYLOAD,2024-05-27 04:37:13,15.08860935,9.95e-05,53.217,58.7819,96.1695,263.941,0.00054755,8.442e-05,0.0,0 STARLINK-5279,1 54165U 22141J   24148.19251789  .00008442  00000-0  54755-3 0  9999,2 54165  53.2170  58.7819 0000995  96.1695 263.9410 15.08860935 87362,6917.816,95.436,540.37,538.993,0.0
54165.0,STARLINK-5279,PAYLOAD,2024-05-27 10:58:46,15.088522,0.0001314,53.2176,57.5888,103.0732,257.0407,0.00029419,4.399e-05,0.0,0 STARLINK-5279,1 54165U 22141J   24148.45748000  .00004399  00000-0  29419-3 0  9991,2 54165  53.2176  57.5888 0001314 103.0732 257.0407 15.08852200 87408,6917.843,95.437,540.617,538.799,0.0
54165.0,STARLINK-5279,PAYLOAD,2024-05-27 22:06:28,15.0884416,0.0001241,53.2171,55.5032,101.3859,258.7272,5.3641e-05,5.66e-06,0.0,0 STARLINK-5279,1 54165U 22141J   24148.92116261  .00000566  00000-0  53641-4 0  9998,2 54165  53.2171  55.5032 0001241 101.3859 258.7272 15.08844160 87473,6917.868,95.437,540.591,538.874,0.0
54165.0,STARLINK-5279,PAYLOAD,2024-05-28 02:52:37,15.08846917,0.0001144,53.2168,54.611,111.8029,248.3085,0.00014038,1.947e-05,0.0,0 STARLINK-5279,1 54165U 22141J   24149.11988108  .00001947  00000-0  14038-3 0  9997,2 54165  53.2168  54.6110 0001144 111.8029 248.3085 15.08846917 87506,6917.859,95.437,540.516,538.933,0.0
54165.0,STARLINK-5279,PAYLOAD,2024-05-28 10:49:33,15.08849092,0.0001086,53.2171,53.1241,106.1308,253.9803,0.0001525,2.141e-05,0.0,0 STARLINK-5279,1 54165U 22141J   24149.45107873  .00002141  00000-0  15250-3 0  9990,2 54165  53.2171  53.1241 0001086 106.1308 253.9803 15.08849092 87553,6917.853,95.437,540.469,538.966,0.0
54165.0,STARLINK-5279,PAYLOAD,2024-05-28 21:57:15,15.08837034,0.0001243,53.217,51.0501,72.4246,287.6882,-4.5918e-05,-1.019e-05,0.0,0 STARLINK-5279,1 54165U 22141J   24149.91476777 -.00001019  00000-0 -45918-4 0  9993,2 54165  53.2170  51.0501 0001243  72.4246 287.6882 15.08837034 87621,6917.889,95.438,540.614,538.895,0.0
54165.0,STARLINK-5279,PAYLOAD,2024-05-29 02:43:24,15.08845699,0.0001262,53.218,50.1554,80.0323,280.0811,7.6687e-05,9.33e-06,0.0,0 STARLINK-5279,1 54165U 22141J   24150.11348376  .00000933  00000-0  76687-4 0  9999,2 54165  53.2180  50.1554 0001262  80.0323 280.0811 15.08845699 87650,6917.863,95.437,540.601,538.855,0.0
54165.0,STARLINK-5279,PAYLOAD,2024-05-29 21:48:02,15.08845836,0.0001314,53.2173,46.5859,91.1461,268.9681,0.0001093,1.452e-05,0.0,0 STARLINK-5279,1 54165U 22141J   24150.90836650  .00001452  00000-0  10930-3 0  9998,2 54165  53.2173  46.5859 0001314  91.1461 268.9681 15.08845836 87779,6917.863,95.437,540.637,538.819,0.0
54165.0,STARLINK-5279,PAYLOAD,2024-05-30 02:34:12,15.08848003,0.0001346,53.2178,45.6915,90.8431,269.2716,0.00019254,2.778e-05,0.0,0 STARLINK-5279,1 54165U 22141J   24151.10708506  .00002778  00000-0  19254-3 0  9999,2 54165  53.2178  45.6915 0001346  90.8431 269.2716 15.08848003 87801,6917.856,95.437,540.652,538.79,0.0
54165.0,STARLINK-5279,PAYLOAD,2024-05-30 20:03:26,15.0885461,0.0001407,53.2178,42.4202,90.8592,269.2561,0.00030767,4.614e-05,0.0,0 STARLINK-5279,1 54165U 22141J   24151.83572178  .00004614  00000-0  30767-3 0  9996,2 54165  53.2178  42.4202 0001407  90.8592 269.2561 15.08854610 87912,6917.836,95.437,540.674,538.727,0.0
54165.0,STARLINK-5279,PAYLOAD,2024-05-30 21:38:49,15.08854962,0.0001404,53.2178,42.1228,90.8243,269.291,0.00030442,4.562e-05,0.0,0 STARLINK-5279,1 54165U 22141J   24151.90196118  .00004562  00000-0  30442-3 0  9992,2 54165  53.2178  42.1228 0001404  90.8243 269.2910 15.08854962 87926,6917.835,95.437,540.671,538.728,0.0
54165.0,STARLINK-5279,PAYLOAD,2024-05-31 02:24:58,15.08856755,0.0001414,53.2179,41.2316,92.7121,267.4033,0.0003111,4.669e-05,0.0,0 STARLINK-5279,1 54165U 22141J   24152.10067916  .00004669  00000-0  31110-3 0  9999,2 54165  53.2179  41.2316 0001414  92.7121 267.4033 15.08856755 87953,6917.829,95.436,540.672,538.716,0.0
54165.0,STARLINK-5279,PAYLOAD,2024-05-31 21:29:35,15.08870282,0.0002123,53.2185,37.666,121.2452,238.8748,0.00039722,6.044e-05,0.0,0 STARLINK-5279,1 54165U 22141J   24152.89554560  .00006044  00000-0  39722-3 0  9997,2 54165  53.2185  37.6660 0002123 121.2452 238.8748 15.08870282 88074,6917.788,95.436,541.121,538.184,0.0
54165.0,STARLINK-5279,PAYLOAD,2024-05-31 23:04:58,15.08881062,0.0001477,53.2181,37.3686,91.8799,268.2362,0.00069868,0.00010861,0.0,0 STARLINK-5279,1 54165U 22141J   24152.96178485  .00010861  00000-0  69868-3 0  9999,2 54165  53.2181  37.3686 0001477  91.8799 268.2362 15.08881062 88080,6917.755,95.435,540.642,538.598,0.0
54165.0,STARLINK-5279,PAYLOAD,2024-06-01 21:20:23,15.08830418,0.0001309,53.2176,33.2059,122.5109,237.601,-0.00020124,-3.488e-05,0.0,0 STARLINK-5279,1 54165U 22141J   24153.88916175 -.00003488  00000-0 -20124-3 0  9998,2 54165  53.2176  33.2059 0001309 122.5109 237.6010 15.08830418 88229,6917.91,95.438,540.68,538.869,0.0
54165.0,STARLINK-5279,PAYLOAD,2024-06-02 08:28:05,15.0882958,0.0001425,53.2176,31.1263,106.8219,253.2929,-0.00018277,-3.195e-05,0.0,0 STARLINK-5279,1 54165U 22141J   24154.35284474 -.00003195  00000-0 -18277-3 0  9992,2 54165  53.2176  31.1263 0001425 106.8219 253.2929 15.08829580 88297,6917.912,95.438,540.763,538.791,0.0
54165.0,STARLINK-5279,PAYLOAD,2024-06-02 22:46:33,15.08838506,0.0001318,53.2176,28.4499,103.4177,256.6962,-0.00021324,-3.68e-05,0.0,0 STARLINK-5279,1 54165U 22141J   24154.94900441 -.00003680  00000-0 -21324-3 0  9992,2 54165  53.2176  28.4499 0001318 103.4177 256.6962 15.08838506 88386,6917.885,95.438,540.662,538.838,0.0
54165.0,STARLINK-5279,PAYLOAD,2024-06-03 08:18:52,15.0884258,0.0001358,53.2182,26.6659,103.9697,256.1447,-5.7236e-06,-3.79e-06,0.0,0 STARLINK-5279,1 54165U 22141J   24155.34644474 -.00000379  00000-0 -57236-5 0  9993,2 54165  53.2182  26.6659 0001358 103.9697 256.1447 15.08842580 88444,6917.873,95.437,540.677,538.798,0.0
54165.0,STARLINK-5279,PAYLOAD,2024-06-04 00:12:44,15.08843216,0.0001336,53.2179,23.6924,107.7167,252.3971,0.00041417,6.31e-05,0.0,0 STARLINK-5279,1 54165U 22141J   24156.00885029  .00006310  00000-0  41417-3 0  9991,2 54165  53.2179  23.6924 0001336 107.7167 252.3971 15.08843216 88540,6917.871,95.437,540.66,538.811,0.0
54165.0,STARLINK-5279,PAYLOAD,2024-06-04 08:09:40,15.08848467,0.0001364,53.2184,22.2039,90.9506,269.1642,0.00035988,5.445e-05,0.0,0 STARLINK-5279,1 54165U 22141J   24156.34004884  .00005445  00000-0  35988-3 0  9994,2 54165  53.2184  22.2039 0001364  90.9506 269.1642 15.08848467 88598,6917.855,95.437,540.663,538.776,0.0
54165.0,STARLINK-5279,PAYLOAD,2024-06-05 08:00:27,15.08833947,0.0001818,53.2174,17.7436,84.0317,276.0883,-9.2089e-05,-1.753e-05,0.0,0 STARLINK-5279,1 54165U 22141J   24157.33365345 -.00001753  00000-0 -92089-4 0  9992,2 54165  53.2174  17.7436 0001818  84.0317 276.0883 15.08833947 88743,6917.899,95.438,541.022,538.506,0.0
54165.0,STARLINK-5279,PAYLOAD,2024-06-05 20:43:32,15.08837,0.0001348,53.2227,15.3659,83.9968,276.1178,6.7619e-07,-2.77e-06,0.0,0 STARLINK-5279,1 54165U 22141J   24157.86357286 -.00000277  00000-0  67619-6 0  9997,2 54165  53.2227  15.3659 0001348  83.9968 276.1178 15.08837000 88822,6917.89,95.438,540.687,538.822,0.0
54165.0,STARLINK-5279,PAYLOAD,2024-06-06 07:51:14,15.08838387,0.0001301,53.2221,13.2856,81.1969,278.9171,0.00014591,2.035e-05,0.0,0 STARLINK-5279,1 54165U 22141J   24158.32725504  .00002035  00000-0  14591-3 0  9992,2 54165  53.2221  13.2856 0001301  81.1969 278.9171 15.08838387 88891,6917.885,95.438,540.65,538.85,0.0
54165.0,STARLINK-5279,PAYLOAD,2024-06-06 23:45:05,15.08854888,0.0001306,53.2144,10.3119,80.7649,279.3491,0.00027497,4.093e-05,0.0,0 STARLINK-5279,1 54165U 22141J   24158.98964910  .00004093  00000-0  27497-3 0  9995,2 54165  53.2144  10.3119 0001306  80.7649 279.3491 15.08854888 88995,6917.835,95.437,540.603,538.796,0.0
54165.0,STARLINK-5279,PAYLOAD,2024-06-07 07:42:01,15.08844706,3.74e-05,53.2238,8.8222,163.6958,196.4046,0.00016615,2.358e-05,0.0,0 STARLINK-5279,1 54165U 22141J   24159.32084831  .00002358  00000-0  16615-3 0  9991,2 54165  53.2238   8.8222 0000374 163.6958 196.4046 15.08844706 89044,6917.866,95.437,539.99,539.472,0.0
54165.0,STARLINK-5279,PAYLOAD,2024-06-07 14:03:34,15.08846183,0.0001582,53.2118,7.6331,103.3188,256.798,0.00026708,3.966e-05,0.0,0 STARLINK-5279,1 54165U 22141J   24159.58581226  .00003966  00000-0  26708-3 0  9999,2 54165  53.2118   7.6331 0001582 103.3188 256.7980 15.08846183 89089,6917.861,95.437,540.821,538.632,0.0
